{"type": "FeatureCollection", "features": [ {"type": "Feature", "properties": {"norad_id": 35442, "name": "COSMOS 2251 DEB", "group": "cosmos-2251-debris", "lat": -54.25985467749239, "lon": 77.2586528256489, "alt_km": 624.5655334918138, "timestamp": "2025-12-11T22:43:47.666779+00:00", "meta": {"OBJECT_NAME": "COSMOS 2251 DEB", "OBJECT_ID": "1993-036AKL", "EPOCH": "2025-12-10T17:52:23.497824", "MEAN_MOTION": 14.84307809, "ECCENTRICITY": 0.00039175, "INCLINATION": 74.0276, "RA_OF_ASC_NODE": 103.0968, "ARG_OF_PERICENTER": 96.7056, "MEAN_ANOMALY": 263.4569, "EPHEMERIS_TYPE": 0, "CLASSIFICATION_TYPE": "U", "NORAD_CAT_ID": 35442, "ELEMENT_SET_NO": 999, "REV_AT_EPOCH": 87323, "BSTAR": 0.0043727584, "MEAN_MOTION_DOT": 0.00036855, "MEAN_MOTION_DDOT": 0}, "tle": {"line1": "1 35442U 93036AKL 25344.74471641  .00036855  00000+0  43728-2 0  9993", "line2": "2 35442  74.0276 103.0968 0003917  96.7056 263.4569 14.84307809873238"}}, "geometry": {"type": "Point", "coordinates": [77.2586528256489, -54.25985467749239]}}, {"type": "Feature", "properties": {"norad_id": 35443, "name": "COSMOS 2251 DEB", "group": "cosmos-2251-debris", "lat": -56.349391562000754, "lon": -52.35031308540109, "alt_km": 635.2814329177509, "timestamp": "2025-12-11T22:43:47.666790+00:00", "meta": {"OBJECT_NAME": "COSMOS 2251 DEB", "OBJECT_ID": "1993-036AKM", "EPOCH": "2025-12-08T06:44:44.274336", "MEAN_MOTION": 14.96147372, "ECCENTRICITY": 0.00733753, "INCLINATION": 73.988, "RA_OF_ASC_NODE": 340.6328, "ARG_OF_PERICENTER": 123.8306, "MEAN_ANOMALY": 236.9892, "EPHEMERIS_TYPE": 0, "CLASSIFICATION_TYPE": "U", "NORAD_CAT_ID": 35443, "ELEMENT_SET_NO": 999, "REV_AT_EPOCH": 86811, "BSTAR": 0.0035457848, "MEAN_MOTION_DOT": 0.00042371, "MEAN_MOTION_DDOT": 0}, "tle": {"line1": "1 35443U 93036AKM 25342.28106799  .00042371  00000+0  35458-2 0  9991", "line2": "2 35443  73.9880 340.6328 0073375 123.8306 236.9892 14.96147372868117"}}, "geometry": {"type": "Point", "coordinates": [-52.35031308540109, -56.349391562000754]}}, {"type": "Feature", "properties": {"norad_id": 35445, "name": "COSMOS 2251 DEB", "group": "cosmos-2251-debris", "lat": 72.63236728107876, "lon": 7.745817005150452, "alt_km": 628.6385321335756, "timestamp": "2025-12-11T22:43:47.666800+00:00", "meta": {"OBJECT_NAME": "COSMOS 2251 DEB", "OBJECT_ID": "1993-036AKP", "EPOCH": "2025-12-09T14:24:43.017696", "MEAN_MOTION": 14.5903749, "ECCENTRICITY": 0.01436968, "INCLINATION": 74.0376, "RA_OF_ASC_NODE": 305.9887, "ARG_OF_PERICENTER": 33.7492, "MEAN_ANOMALY": 327.2717, "EPHEMERIS_TYPE": 0, "CLASSIFICATION_TYPE": "U", "NORAD_CAT_ID": 35445, "ELEMENT_SET_NO": 999, "REV_AT_EPOCH": 87283, "BSTAR": 0.0029213682, "MEAN_MOTION_DOT": 0.00015858, "MEAN_MOTION_DDOT": 0}, "tle": {"line1": "1 35445U 93036AKP 25343.60049789  .00015858  00000+0  29214-2 0  9998", "line2": "2 35445  74.0376 305.9887 0143696  33.7492 327.2717 14.59037490872836"}}, "geometry": {"type": "Point", "coordinates": [7.745817005150452, 72.63236728107876]}}, {"type": "Feature", "properties": {"norad_id": 35446, "name": "COSMOS 2251 DEB", "group": "cosmos-2251-debris", "lat": 45.9013865183016, "lon": 122.51163020620419, "alt_km": 674.601161174055, "timestamp": "2025-12-11T22:43:47.666811+00:00", "meta": {"OBJECT_NAME": "COSMOS 2251 DEB", "OBJECT_ID": "1993-036AKQ", "EPOCH": "2025-12-11T08:55:45.715296", "MEAN_MOTION": 14.54627473, "ECCENTRICITY": 0.0074428, "INCLINATION": 74.0469, "RA_OF_ASC_NODE": 320.7675, "ARG_OF_PERICENTER": 79.324, "MEAN_ANOMALY": 281.6293, "EPHEMERIS_TYPE": 0, "CLASSIFICATION_TYPE": "U", "NORAD_CAT_ID": 35446, "ELEMENT_SET_NO": 999, "REV_AT_EPOCH": 87988, "BSTAR": 0.00019475803, "MEAN_MOTION_DOT": 8.34e-06, "MEAN_MOTION_DDOT": 0}, "tle": {"line1": "1 35446U 93036AKQ 25345.37205689  .00000834  00000+0  19476-3 0  9996", "line2": "2 35446  74.0469 320.7675 0074428  79.3240 281.6293 14.54627473879888"}}, "geometry": {"type": "Point", "coordinates": [122.51163020620419, 45.9013865183016]}}, {"type": "Feature", "properties": {"norad_id": 35448, "name": "COSMOS 2251 DEB", "group": "cosmos-2251-debris", "lat": -8.880006453422842, "lon": 88.43705038856352, "alt_km": 713.9897447270705, "timestamp": "2025-12-11T22:43:47.666821+00:00", "meta": {"OBJECT_NAME": "COSMOS 2251 DEB", "OBJECT_ID": "1993-036AKS", "EPOCH": "2025-12-10T08:47:56.216832", "MEAN_MOTION": 14.54228098, "ECCENTRICITY": 0.00112894, "INCLINATION": 73.9047, "RA_OF_ASC_NODE": 94.0334, "ARG_OF_PERICENTER": 275.0476, "MEAN_ANOMALY": 84.9397, "EPHEMERIS_TYPE": 0, "CLASSIFICATION_TYPE": "U", "NORAD_CAT_ID": 35448, "ELEMENT_SET_NO": 999, "REV_AT_EPOCH": 87300, "BSTAR": 0.0017680257, "MEAN_MOTION_DOT": 7.475e-05, "MEAN_MOTION_DDOT": 0}, "tle": {"line1": "1 35448U 93036AKS 25344.36662288  .00007475  00000+0  17680-2 0  9990", "line2": "2 35448  73.9047  94.0334 0011289 275.0476  84.9397 14.54228098873002"}}, "geometry": {"type": "Point", "coordinates": [88.43705038856352, -8.880006453422842]}}, {"type": "Feature", "properties": {"norad_id": 35451, "name": "COSMOS 2251 DEB", "group": "cosmos-2251-debris", "lat": 37.27941290920672, "lon": -88.29461332001938, "alt_km": 480.81839339090857, "timestamp": "2025-12-11T22:43:47.666831+00:00", "meta": {"OBJECT_NAME": "COSMOS 2251 DEB", "OBJECT_ID": "1993-036AKV", "EPOCH": "2025-12-11T14:18:02.259072", "MEAN_MOTION": 15.35417898, "ECCENTRICITY": 0.00409084, "INCLINATION": 73.9313, "RA_OF_ASC_NODE": 105.1387, "ARG_OF_PERICENTER": 351.3523, "MEAN_ANOMALY": 8.6971, "EPHEMERIS_TYPE": 0, "CLASSIFICATION_TYPE": "U", "NORAD_CAT_ID": 35451, "ELEMENT_SET_NO": 999, "REV_AT_EPOCH": 67388, "BSTAR": 0.0019731642, "MEAN_MOTION_DOT": 0.00070398, "MEAN_MOTION_DDOT": 0}, "tle": {"line1": "1 35451U 93036AKV 25345.59585948  .00070398  00000+0  19732-2 0  9991", "line2": "2 35451  73.9313 105.1387 0040908 351.3523   8.6971 15.35417898673888"}}, "geometry": {"type": "Point", "coordinates": [-88.29461332001938, 37.27941290920672]}}, {"type": "Feature", "properties": {"norad_id": 35453, "name": "COSMOS 2251 DEB", "group": "cosmos-2251-debris", "lat": 73.9857335926984, "lon": 109.32914905521781, "alt_km": 738.3455974669423, "timestamp": "2025-12-11T22:43:47.666841+00:00", "meta": {"OBJECT_NAME": "COSMOS 2251 DEB", "OBJECT_ID": "1993-036AKX", "EPOCH": "2025-12-02T12:53:58.122528", "MEAN_MOTION": 14.3790654, "ECCENTRICITY": 0.00680216, "INCLINATION": 74.0102, "RA_OF_ASC_NODE": 39.1945, "ARG_OF_PERICENTER": 175.6131, "MEAN_ANOMALY": 184.5634, "EPHEMERIS_TYPE": 0, "CLASSIFICATION_TYPE": "U", "NORAD_CAT_ID": 35453, "ELEMENT_SET_NO": 999, "REV_AT_EPOCH": 86072, "BSTAR": 0.00098540606, "MEAN_MOTION_DOT": 3.03e-05, "MEAN_MOTION_DDOT": 0}, "tle": {"line1": "1 35453U 93036AKX 25336.53747827  .00003030  00000+0  98541-3 0  9998", "line2": "2 35453  74.0102  39.1945 0068021 175.6131 184.5634 14.37906540860721"}}, "geometry": {"type": "Point", "coordinates": [109.32914905521781, 73.9857335926984]}}, {"type": "Feature", "properties": {"norad_id": 35455, "name": "COSMOS 2251 DEB", "group": "cosmos-2251-debris", "lat": -74.01751238267572, "lon": -154.4168095921688, "alt_km": 779.5971525357236, "timestamp": "2025-12-11T22:43:47.666851+00:00", "meta": {"OBJECT_NAME": "COSMOS 2251 DEB", "OBJECT_ID": "1993-036AKZ", "EPOCH": "2025-12-10T07:23:15.145152", "MEAN_MOTION": 14.49356293, "ECCENTRICITY": 0.0098984, "INCLINATION": 74.0286, "RA_OF_ASC_NODE": 299.3687, "ARG_OF_PERICENTER": 43.4933, "MEAN_ANOMALY": 317.3978, "EPHEMERIS_TYPE": 0, "CLASSIFICATION_TYPE": "U", "NORAD_CAT_ID": 35455, "ELEMENT_SET_NO": 999, "REV_AT_EPOCH": 86508, "BSTAR": 0.0024937, "MEAN_MOTION_DOT": 0.00010129, "MEAN_MOTION_DDOT": 0}, "tle": {"line1": "1 35455U 93036AKZ 25344.30781418  .00010129  00000+0  24937-2 0  9992", "line2": "2 35455  74.0286 299.3687 0098984  43.4933 317.3978 14.49356293865080"}}, "geometry": {"type": "Point", "coordinates": [-154.4168095921688, -74.01751238267572]}}, {"type": "Feature", "properties": {"norad_id": 35456, "name": "COSMOS 2251 DEB", "group": "cosmos-2251-debris", "lat": -32.70706719823844, "lon": -50.32549127655011, "alt_km": 687.8269935309918, "timestamp": "2025-12-11T22:43:47.666861+00:00", "meta": {"OBJECT_NAME": "COSMOS 2251 DEB", "OBJECT_ID": "1993-036ALA", "EPOCH": "2025-12-07T16:26:35.520576", "MEAN_MOTION": 14.69275987, "ECCENTRICITY": 0.0065481, "INCLINATION": 73.9502, "RA_OF_ASC_NODE": 127.3161, "ARG_OF_PERICENTER": 338.308, "MEAN_ANOMALY": 21.5318, "EPHEMERIS_TYPE": 0, "CLASSIFICATION_TYPE": "U", "NORAD_CAT_ID": 35456, "ELEMENT_SET_NO": 999, "REV_AT_EPOCH": 65801, "BSTAR": 0.0028319025, "MEAN_MOTION_DOT": 0.00017275, "MEAN_MOTION_DDOT": 0}, "tle": {"line1": "1 35456U 93036ALA 25341.68513334  .00017275  00000+0  28319-2 0  9998", "line2": "2 35456  73.9502 127.3161 0065481 338.3080  21.5318 14.69275987658019"}}, "geometry": {"type": "Point", "coordinates": [-50.32549127655011, -32.70706719823844]}}, {"type": "Feature", "properties": {"norad_id": 35459, "name": "COSMOS 2251 DEB", "group": "cosmos-2251-debris", "lat": -30.999507268422178, "lon": 178.7444339443867, "alt_km": 784.0277596701399, "timestamp": "2025-12-11T22:43:47.666872+00:00", "meta": {"OBJECT_NAME": "COSMOS 2251 DEB", "OBJECT_ID": "1993-036ALD", "EPOCH": "2025-12-10T20:09:22.902624", "MEAN_MOTION": 14.37457314, "ECCENTRICITY": 0.00163485, "INCLINATION": 73.8697, "RA_OF_ASC_NODE": 190.8154, "ARG_OF_PERICENTER": 139.3588, "MEAN_ANOMALY": 220.8788, "EPHEMERIS_TYPE": 0, "CLASSIFICATION_TYPE": "U", "NORAD_CAT_ID": 35459, "ELEMENT_SET_NO": 999, "REV_AT_EPOCH": 58334, "BSTAR": 0.00035409839, "MEAN_MOTION_DOT": 1.034e-05, "MEAN_MOTION_DDOT": 0}, "tle": {"line1": "1 35459U 93036ALD 25344.83984841  .00001034  00000+0  35410-3 0  9993", "line2": "2 35459  73.8697 190.8154 0016348 139.3588 220.8788 14.37457314583342"}}, "geometry": {"type": "Point", "coordinates": [178.7444339443867, -30.999507268422178]}}]}